{"type": "FeatureCollection", "features": [ {"type": "Feature", "properties": {"norad_id": 39122, "name": "EUTELSAT 117 WEST A", "group": "eutelsat", "lat": 0.0072737557243489, "lon": 149.8264648114049, "alt_km": 35793.78684932403, "timestamp": "2025-12-26T11:25:44.890169+00:00", "meta": {"OBJECT_NAME": "EUTELSAT 117 WEST A", "OBJECT_ID": "2013-012A", "EPOCH": "2025-12-26T04:39:38.472192", "MEAN_MOTION": 1.00270803, "ECCENTRICITY": 0.000281, "INCLINATION": 0.0164, "RA_OF_ASC_NODE": 327.3553, "ARG_OF_PERICENTER": 311.2104, "MEAN_ANOMALY": 129.4894, "EPHEMERIS_TYPE": 0, "CLASSIFICATION_TYPE": "U", "NORAD_CAT_ID": 39122, "ELEMENT_SET_NO": 999, "REV_AT_EPOCH": 4669, "BSTAR": 0, "MEAN_MOTION_DOT": 9e-08, "MEAN_MOTION_DDOT": 0}, "tle": {"line1": "1 39122U 13012A   25360.19419528  .00000009  00000+0  00000+0 0  9996", "line2": "2 39122   0.0164 327.3553 0002810 311.2104 129.4894  1.00270803 46694"}}, "geometry": {"type": "Point", "coordinates": [149.8264648114049, 0.0072737557243489]}}, {"type": "Feature", "properties": {"norad_id": 39163, "name": "EUTELSAT 7B", "group": "eutelsat", "lat": -0.08504686248290837, "lon": -86.39580708348136, "alt_km": 35773.00715960752, "timestamp": "2025-12-26T11:25:44.890179+00:00", "meta": {"OBJECT_NAME": "EUTELSAT 7B", "OBJECT_ID": "2013-022A", "EPOCH": "2025-12-25T22:01:38.543808", "MEAN_MOTION": 1.00271769, "ECCENTRICITY": 0.000467, "INCLINATION": 0.0662, "RA_OF_ASC_NODE": 11.1049, "ARG_OF_PERICENTER": 311.2066, "MEAN_ANOMALY": 109.7628, "EPHEMERIS_TYPE": 0, "CLASSIFICATION_TYPE": "U", "NORAD_CAT_ID": 39163, "ELEMENT_SET_NO": 999, "REV_AT_EPOCH": 4621, "BSTAR": 0, "MEAN_MOTION_DOT": 7e-07, "MEAN_MOTION_DDOT": 0}, "tle": {"line1": "1 39163U 13022A   25359.91780722  .00000070  00000+0  00000+0 0  9995", "line2": "2 39163   0.0662  11.1049 0004670 311.2066 109.7628  1.00271769 46219"}}, "geometry": {"type": "Point", "coordinates": [-86.39580708348136, -0.08504686248290837]}}, {"type": "Feature", "properties": {"norad_id": 39612, "name": "EXPRESS-AT1", "group": "eutelsat", "lat": -0.00193552830531754, "lon": -37.334235711490294, "alt_km": 35791.49464152464, "timestamp": "2025-12-26T11:25:44.890190+00:00", "meta": {"OBJECT_NAME": "EXPRESS-AT1", "OBJECT_ID": "2014-010A", "EPOCH": "2025-12-26T02:18:38.819232", "MEAN_MOTION": 1.00275434, "ECCENTRICITY": 0.0001543, "INCLINATION": 0.0175, "RA_OF_ASC_NODE": 279.6656, "ARG_OF_PERICENTER": 228.7445, "MEAN_ANOMALY": 37.1062, "EPHEMERIS_TYPE": 0, "CLASSIFICATION_TYPE": "U", "NORAD_CAT_ID": 39612, "ELEMENT_SET_NO": 999, "REV_AT_EPOCH": 4308, "BSTAR": 0, "MEAN_MOTION_DOT": 1e-06, "MEAN_MOTION_DDOT": 0}, "tle": {"line1": "1 39612U 14010A   25360.09628263  .00000100  00000+0  00000+0 0  9998", "line2": "2 39612   0.0175 279.6656 0001543 228.7445  37.1062  1.00275434 43082"}}, "geometry": {"type": "Point", "coordinates": [-37.334235711490294, -0.00193552830531754]}}, {"type": "Feature", "properties": {"norad_id": 39613, "name": "EXPRESS-AT2", "group": "eutelsat", "lat": 0.018331548661158593, "lon": 46.52626508901563, "alt_km": 35790.869103874815, "timestamp": "2025-12-26T11:25:44.890200+00:00", "meta": {"OBJECT_NAME": "EXPRESS-AT2", "OBJECT_ID": "2014-010B", "EPOCH": "2025-12-26T04:37:51.749184", "MEAN_MOTION": 1.00271362, "ECCENTRICITY": 0.0001642, "INCLINATION": 0.0126, "RA_OF_ASC_NODE": 302.8434, "ARG_OF_PERICENTER": 331.8203, "MEAN_ANOMALY": 29.6055, "EPHEMERIS_TYPE": 0, "CLASSIFICATION_TYPE": "U", "NORAD_CAT_ID": 39613, "ELEMENT_SET_NO": 999, "REV_AT_EPOCH": 4276, "BSTAR": 0, "MEAN_MOTION_DOT": -2.59e-06, "MEAN_MOTION_DDOT": 0}, "tle": {"line1": "1 39613U 14010B   25360.19296006 -.00000259  00000+0  00000+0 0  9992", "line2": "2 39613   0.0126 302.8434 0001642 331.8203  29.6055  1.00271362 42768"}}, "geometry": {"type": "Point", "coordinates": [46.52626508901563, 0.018331548661158593]}}, {"type": "Feature", "properties": {"norad_id": 39773, "name": "EUTELSAT 3B", "group": "eutelsat", "lat": -0.07786852891913233, "lon": -90.22657677997651, "alt_km": 35771.56494757534, "timestamp": "2025-12-26T11:25:44.890211+00:00", "meta": {"OBJECT_NAME": "EUTELSAT 3B", "OBJECT_ID": "2014-030A", "EPOCH": "2025-12-25T22:09:38.747232", "MEAN_MOTION": 1.00270275, "ECCENTRICITY": 0.0004276, "INCLINATION": 0.0601, "RA_OF_ASC_NODE": 351.2904, "ARG_OF_PERICENTER": 244.007, "MEAN_ANOMALY": 194.888, "EPHEMERIS_TYPE": 0, "CLASSIFICATION_TYPE": "U", "NORAD_CAT_ID": 39773, "ELEMENT_SET_NO": 999, "REV_AT_EPOCH": 4233, "BSTAR": 0, "MEAN_MOTION_DOT": 4.1e-07, "MEAN_MOTION_DDOT": 0}, "tle": {"line1": "1 39773U 14030A   25359.92336513  .00000041  00000+0  00000+0 0  9996", "line2": "2 39773   0.0601 351.2904 0004276 244.0070 194.8880  1.00270275 42332"}}, "geometry": {"type": "Point", "coordinates": [-90.22657677997651, -0.07786852891913233]}}, {"type": "Feature", "properties": {"norad_id": 40425, "name": "EUTELSAT 115 WEST B", "group": "eutelsat", "lat": -0.003017740555119929, "lon": 151.74586686148822, "alt_km": 35785.61835140851, "timestamp": "2025-12-26T11:25:44.890221+00:00", "meta": {"OBJECT_NAME": "EUTELSAT 115 WEST B", "OBJECT_ID": "2015-010B", "EPOCH": "2025-12-26T04:39:38.472192", "MEAN_MOTION": 1.00273716, "ECCENTRICITY": 7.9e-06, "INCLINATION": 0.0096, "RA_OF_ASC_NODE": 155.377, "ARG_OF_PERICENTER": 251.4809, "MEAN_ANOMALY": 3.0875, "EPHEMERIS_TYPE": 0, "CLASSIFICATION_TYPE": "U", "NORAD_CAT_ID": 40425, "ELEMENT_SET_NO": 999, "REV_AT_EPOCH": 3965, "BSTAR": 0, "MEAN_MOTION_DOT": -3e-08, "MEAN_MOTION_DDOT": 0}, "tle": {"line1": "1 40425U 15010B   25360.19419528 -.00000003  00000+0  00000+0 0  9999", "line2": "2 40425   0.0096 155.3770 0000079 251.4809   3.0875  1.00273716 39658"}}, "geometry": {"type": "Point", "coordinates": [151.74586686148822, -0.003017740555119929]}}, {"type": "Feature", "properties": {"norad_id": 40875, "name": "EUTELSAT 8 WEST B", "group": "eutelsat", "lat": -0.07796970119671062, "lon": -101.36642205960764, "alt_km": 35769.131024675735, "timestamp": "2025-12-26T11:25:44.890232+00:00", "meta": {"OBJECT_NAME": "EUTELSAT 8 WEST B", "OBJECT_ID": "2015-039B", "EPOCH": "2025-12-26T00:08:38.731776", "MEAN_MOTION": 1.00271363, "ECCENTRICITY": 0.0004213, "INCLINATION": 0.0647, "RA_OF_ASC_NODE": 10.9589, "ARG_OF_PERICENTER": 264.4532, "MEAN_ANOMALY": 173.5041, "EPHEMERIS_TYPE": 0, "CLASSIFICATION_TYPE": "U", "NORAD_CAT_ID": 40875, "ELEMENT_SET_NO": 999, "REV_AT_EPOCH": 3792, "BSTAR": 0, "MEAN_MOTION_DOT": -4.4e-07, "MEAN_MOTION_DDOT": 0}, "tle": {"line1": "1 40875U 15039B   25360.00600384 -.00000044  00000+0  00000+0 0  9996", "line2": "2 40875   0.0647  10.9589 0004213 264.4532 173.5041  1.00271363 37926"}}, "geometry": {"type": "Point", "coordinates": [-101.36642205960764, -0.07796970119671062]}}, {"type": "Feature", "properties": {"norad_id": 41310, "name": "EUTELSAT 9B", "group": "eutelsat", "lat": -0.037304901630371416, "lon": -84.35538593679667, "alt_km": 35766.74735664677, "timestamp": "2025-12-26T11:25:44.890242+00:00", "meta": {"OBJECT_NAME": "EUTELSAT 9B", "OBJECT_ID": "2016-005A", "EPOCH": "2025-12-25T22:01:38.543808", "MEAN_MOTION": 1.0026988, "ECCENTRICITY": 0.0004684, "INCLINATION": 0.0266, "RA_OF_ASC_NODE": 46.8521, "ARG_OF_PERICENTER": 228.3219, "MEAN_ANOMALY": 158.904, "EPHEMERIS_TYPE": 0, "CLASSIFICATION_TYPE": "U", "NORAD_CAT_ID": 41310, "ELEMENT_SET_NO": 999, "REV_AT_EPOCH": 3637, "BSTAR": 0, "MEAN_MOTION_DOT": 8.3e-07, "MEAN_MOTION_DDOT": 0}, "tle": {"line1": "1 41310U 16005A   25359.91780722  .00000083  00000+0  00000+0 0  9990", "line2": "2 41310   0.0266  46.8521 0004684 228.3219 158.9040  1.00269880 36370"}}, "geometry": {"type": "Point", "coordinates": [-84.35538593679667, -0.037304901630371416]}}, {"type": "Feature", "properties": {"norad_id": 41382, "name": "EUTELSAT 65 WEST A", "group": "eutelsat", "lat": -0.032069934986508127, "lon": -158.55573953031913, "alt_km": 35783.9589469549, "timestamp": "2025-12-26T11:25:44.890253+00:00", "meta": {"OBJECT_NAME": "EUTELSAT 65 WEST A", "OBJECT_ID": "2016-014A", "EPOCH": "2025-12-26T00:48:38.495232", "MEAN_MOTION": 1.00271394, "ECCENTRICITY": 0.0002343, "INCLINATION": 0.0476, "RA_OF_ASC_NODE": 346.6091, "ARG_OF_PERICENTER": 291.5332, "MEAN_ANOMALY": 123.6234, "EPHEMERIS_TYPE": 0, "CLASSIFICATION_TYPE": "U", "NORAD_CAT_ID": 41382, "ELEMENT_SET_NO": 999, "REV_AT_EPOCH": 3579, "BSTAR": 0, "MEAN_MOTION_DOT": -2.55e-06, "MEAN_MOTION_DDOT": 0}, "tle": {"line1": "1 41382U 16014A   25360.03377888 -.00000255  00000+0  00000+0 0  9991", "line2": "2 41382   0.0476 346.6091 0002343 291.5332 123.6234  1.00271394 35795"}}, "geometry": {"type": "Point", "coordinates": [-158.55573953031913, -0.032069934986508127]}}, {"type": "Feature", "properties": {"norad_id": 41589, "name": "EUTELSAT 117 WEST B", "group": "eutelsat", "lat": -0.002312788321157998, "lon": 149.68007286400083, "alt_km": 35786.46725022833, "timestamp": "2025-12-26T11:25:44.890263+00:00", "meta": {"OBJECT_NAME": "EUTELSAT 117 WEST B", "OBJECT_ID": "2016-038B", "EPOCH": "2025-12-24T09:59:01.014144", "MEAN_MOTION": 1.00277873, "ECCENTRICITY": 6.384e-05, "INCLINATION": 0.0094, "RA_OF_ASC_NODE": 154.0765, "ARG_OF_PERICENTER": 139.5473, "MEAN_ANOMALY": 192.3072, "EPHEMERIS_TYPE": 0, "CLASSIFICATION_TYPE": "U", "NORAD_CAT_ID": 41589, "ELEMENT_SET_NO": 999, "REV_AT_EPOCH": 3491, "BSTAR": 0, "MEAN_MOTION_DOT": 9e-08, "MEAN_MOTION_DDOT": 0}, "tle": {"line1": "1 41589U 16038B   25358.41598396  .00000009  00000+0  00000+0 0  9990", "line2": "2 41589   0.0094 154.0765 0000638 139.5473 192.3072  1.00277873 34915"}}, "geometry": {"type": "Point", "coordinates": [149.68007286400083, -0.002312788321157998]}}]}